CORVUS BC4              
1 43767U 18099K   26068.65923737  .00005714  00000+0  33980-3 0  9990
2 43767  97.4206 114.5457 0008046 356.5821   3.5354 15.11615710397368
STARLINK-3917           
1 52588U 22051BE  26068.52332896 -.00000154  00000+0  84220-5 0  9999
2 52588  53.2164 119.8689 0001350  94.3359 265.7788 15.08839707211561
